ONEWEB-0196             
1 48218U 21031J   25034.49331810  .00000060  00000+0  12765-3 0  9992
2 48218  87.9005  28.8569 0001875  89.0882 271.0463 13.14505933182714
ONEWEB-0183             
1 48219U 21031K   25034.46796027 -.00000153  00000+0 -44774-3 0  9995
2 48219  87.8997  28.8772 0001756  83.0037 277.1292 13.14502523182803
ONEWEB-0185             
1 48220U 21031L   25034.49413178  .00000179  00000+0  44843-3 0  9996
2 48220  87.8994  28.8424 0001986  78.9409 281.1944 13.14502716182732
ONEWEB-0187             
1 48221U 21031M   25034.54011151 -.00000210  00000+0 -59979-3 0  9992
2 48221  87.9003  28.8684 0001874  83.1348 276.9995 13.14503042182752
ONEWEB-0192             
1 48222U 21031N   25034.52027745  .00000132  00000+0  32253-3 0  9994
2 48222  87.9006  28.8695 0001897  87.7888 272.3459 13.14504193182665
ONEWEB-0219             
1 48223U 21031P   25034.49966291  .00000203  00000+0  51375-3 0  9994
2 48223  87.8998  28.8481 0001951  81.5008 278.6343 13.14503858182865
ONEWEB-0202             
1 48224U 21031Q   25034.48063976 -.00000060  00000+0 -19673-3 0  9990
2 48224  87.8999  28.8676 0002654  91.4687 268.6747 13.14505352182843
ONEWEB-0204             
1 48225U 21031R   25034.51472906  .00000196  00000+0  49518-3 0  9991
2 48225  87.9001  28.8728 0001524  77.7974 282.3326 13.14503598182743
